<?xml version="1.0" encoding="UTF-8"?>
<kml xmlns="http://www.opengis.net/kml/2.2" xmlns:gx="http://www.google.com/kml/ext/2.2" xmlns:kml="http://www.opengis.net/kml/2.2" xmlns:atom="http://www.w3.org/2005/Atom">
<Document id="document">
	<name>Laydown GCP 5</name>
	<Schema name="__managed_schema" id="__managed_schema">
		<SimpleField type="int" name="18870193E640D53ED8C8">
			<displayName>Accuracy (m)</displayName>
		</SimpleField>
		<SimpleField type="int" name="0774BD3FD340D5394CF4">
			<displayName>Accuracy (m)</displayName>
		</SimpleField>
	</Schema>
	<gx:CascadingStyle kml:id="__managed_style_0C835AB42440D555EB65_highlight">
		<Style>
			<IconStyle>
				<scale>1.2</scale>
				<Icon>
					<href>https://earth.google.com/earth/document/icon?color=1976d2&amp;id=2000&amp;scale=4</href>
				</Icon>
				<hotSpot x="64" y="128" xunits="pixels" yunits="insetPixels"/>
			</IconStyle>
			<LabelStyle>
			</LabelStyle>
			<LineStyle>
				<color>ff5053ef</color>
				<width>2</width>
			</LineStyle>
			<PolyStyle>
				<color>40ffffff</color>
			</PolyStyle>
			<BalloonStyle>
				<displayMode>hide</displayMode>
			</BalloonStyle>
		</Style>
	</gx:CascadingStyle>
	<gx:CascadingStyle kml:id="__managed_style_0C835AB42440D555EB65_normal">
		<Style>
			<IconStyle>
				<Icon>
					<href>https://earth.google.com/earth/document/icon?color=1976d2&amp;id=2000&amp;scale=4</href>
				</Icon>
				<hotSpot x="64" y="128" xunits="pixels" yunits="insetPixels"/>
			</IconStyle>
			<LabelStyle>
			</LabelStyle>
			<LineStyle>
				<color>ff5053ef</color>
				<width>1.33333</width>
			</LineStyle>
			<PolyStyle>
				<color>40ffffff</color>
			</PolyStyle>
			<BalloonStyle>
				<displayMode>hide</displayMode>
			</BalloonStyle>
		</Style>
	</gx:CascadingStyle>
	<StyleMap id="__managed_style_0C835AB42440D555EB65">
		<Pair>
			<key>normal</key>
			<styleUrl>#__managed_style_0C835AB42440D555EB65_normal</styleUrl>
		</Pair>
		<Pair>
			<key>highlight</key>
			<styleUrl>#__managed_style_0C835AB42440D555EB65_highlight</styleUrl>
		</Pair>
	</StyleMap>
	<gx:CascadingStyle kml:id="__managed_style_0593DA188740D54F6F23_normal">
		<Style>
			<IconStyle>
				<Icon>
					<href>https://earth.google.com/earth/document/icon?color=1976d2&amp;id=2000&amp;scale=4</href>
				</Icon>
				<hotSpot x="64" y="128" xunits="pixels" yunits="insetPixels"/>
			</IconStyle>
			<LabelStyle>
			</LabelStyle>
			<LineStyle>
				<color>ff2dc0fb</color>
				<width>1.33333</width>
			</LineStyle>
			<PolyStyle>
				<color>40ffffff</color>
			</PolyStyle>
			<BalloonStyle>
				<displayMode>hide</displayMode>
			</BalloonStyle>
		</Style>
	</gx:CascadingStyle>
	<gx:CascadingStyle kml:id="__managed_style_0593DA188740D54F6F23_highlight">
		<Style>
			<IconStyle>
				<scale>1.2</scale>
				<Icon>
					<href>https://earth.google.com/earth/document/icon?color=1976d2&amp;id=2000&amp;scale=4</href>
				</Icon>
				<hotSpot x="64" y="128" xunits="pixels" yunits="insetPixels"/>
			</IconStyle>
			<LabelStyle>
			</LabelStyle>
			<LineStyle>
				<color>ff2dc0fb</color>
				<width>2</width>
			</LineStyle>
			<PolyStyle>
				<color>40ffffff</color>
			</PolyStyle>
			<BalloonStyle>
				<displayMode>hide</displayMode>
			</BalloonStyle>
		</Style>
	</gx:CascadingStyle>
	<gx:CascadingStyle kml:id="__managed_style_073447481D40D5394D0D_highlight">
		<Style>
			<IconStyle>
				<scale>1.2</scale>
				<Icon>
					<href>https://earth.google.com/earth/document/icon?color=1976d2&amp;id=2000&amp;scale=4</href>
				</Icon>
				<hotSpot x="64" y="128" xunits="pixels" yunits="insetPixels"/>
			</IconStyle>
			<LineStyle>
				<color>ff2dc0fb</color>
				<width>2</width>
			</LineStyle>
			<PolyStyle>
				<color>40ffffff</color>
			</PolyStyle>
			<BalloonStyle>
				<displayMode>hide</displayMode>
			</BalloonStyle>
		</Style>
	</gx:CascadingStyle>
	<StyleMap id="__managed_style_0593DA188740D54F6F23">
		<Pair>
			<key>normal</key>
			<styleUrl>#__managed_style_0593DA188740D54F6F23_normal</styleUrl>
		</Pair>
		<Pair>
			<key>highlight</key>
			<styleUrl>#__managed_style_0593DA188740D54F6F23_highlight</styleUrl>
		</Pair>
	</StyleMap>
	<gx:CascadingStyle kml:id="__managed_style_073447481D40D5394D0D_normal">
		<Style>
			<IconStyle>
				<Icon>
					<href>https://earth.google.com/earth/document/icon?color=1976d2&amp;id=2000&amp;scale=4</href>
				</Icon>
				<hotSpot x="64" y="128" xunits="pixels" yunits="insetPixels"/>
			</IconStyle>
			<LineStyle>
				<color>ff2dc0fb</color>
				<width>1.33333</width>
			</LineStyle>
			<PolyStyle>
				<color>40ffffff</color>
			</PolyStyle>
			<BalloonStyle>
				<displayMode>hide</displayMode>
			</BalloonStyle>
		</Style>
	</gx:CascadingStyle>
	<StyleMap id="__managed_style_073447481D40D5394D0D">
		<Pair>
			<key>normal</key>
			<styleUrl>#__managed_style_073447481D40D5394D0D_normal</styleUrl>
		</Pair>
		<Pair>
			<key>highlight</key>
			<styleUrl>#__managed_style_073447481D40D5394D0D_highlight</styleUrl>
		</Pair>
	</StyleMap>
	<Placemark id="07C4C0241E40D5394CF2">
		<name>P1</name>
		<LookAt>
			<longitude>50.23426593286008</longitude>
			<latitude>25.23025865202438</latitude>
			<altitude>107.9347004409325</altitude>
			<heading>-1</heading>
			<tilt>0</tilt>
			<gx:fovy>35</gx:fovy>
			<range>500</range>
			<altitudeMode>absolute</altitudeMode>
		</LookAt>
		<styleUrl>#__managed_style_073447481D40D5394D0D</styleUrl>
		<ExtendedData>
			<SchemaData schemaUrl="#__managed_schema">
				<SimpleData name="0774BD3FD340D5394CF4">5</SimpleData>
			</SchemaData>
		</ExtendedData>
		<Point>
			<extrude>1</extrude>
			<coordinates>50.23430606849765,25.23026188344173,107.9347004409325</coordinates>
		</Point>
	</Placemark>
	<Placemark id="0178DE427E40D53BBA7A">
		<name>p2</name>
		<LookAt>
			<longitude>50.23321677004009</longitude>
			<latitude>25.23026661484058</latitude>
			<altitude>108.7936654915307</altitude>
			<heading>6.6796875</heading>
			<tilt>0</tilt>
			<gx:fovy>35</gx:fovy>
			<range>500</range>
			<altitudeMode>absolute</altitudeMode>
		</LookAt>
		<styleUrl>#__managed_style_073447481D40D5394D0D</styleUrl>
		<Point>
			<coordinates>50.23317446376262,25.23027430036592,108.7936654915307</coordinates>
		</Point>
	</Placemark>
	<Placemark id="01DE7A884440D53ED8C8">
		<name>p3</name>
		<LookAt>
			<longitude>50.23183076802733</longitude>
			<latitude>25.23031501382171</latitude>
			<altitude>108.3283846582836</altitude>
			<heading>97.20878618311706</heading>
			<tilt>0</tilt>
			<gx:fovy>35</gx:fovy>
			<range>309.9641880267154</range>
			<altitudeMode>absolute</altitudeMode>
		</LookAt>
		<styleUrl>#__managed_style_073447481D40D5394D0D</styleUrl>
		<ExtendedData>
			<SchemaData schemaUrl="file://earth/2877936057675672434#__managed_schema">
				<SimpleData name="18870193E640D53ED8C8">3</SimpleData>
			</SchemaData>
		</ExtendedData>
		<Point>
			<extrude>1</extrude>
			<coordinates>50.2318902135612,25.23027545782316,108.4992014082263</coordinates>
		</Point>
	</Placemark>
	<Placemark id="0BDFF5E8BB40D54089D5">
		<name>p4</name>
		<LookAt>
			<longitude>50.23424548101633</longitude>
			<latitude>25.2305732248586</latitude>
			<altitude>107.4583618019405</altitude>
			<heading>-1</heading>
			<tilt>0</tilt>
			<gx:fovy>35</gx:fovy>
			<range>500</range>
			<altitudeMode>absolute</altitudeMode>
		</LookAt>
		<styleUrl>#__managed_style_073447481D40D5394D0D</styleUrl>
		<Point>
			<coordinates>50.23432604163201,25.23056899958996,107.4583618019405</coordinates>
		</Point>
	</Placemark>
	<Placemark id="0A94A0BED140D543578D">
		<name>p5</name>
		<LookAt>
			<longitude>50.23316587607221</longitude>
			<latitude>25.23054597309407</latitude>
			<altitude>109.9998819446614</altitude>
			<heading>267.1874675971637</heading>
			<tilt>0</tilt>
			<gx:fovy>35</gx:fovy>
			<range>716.3568312714051</range>
			<altitudeMode>absolute</altitudeMode>
		</LookAt>
		<styleUrl>#__managed_style_073447481D40D5394D0D</styleUrl>
		<Point>
			<coordinates>50.23316587607221,25.23054597309407,109.9998819446614</coordinates>
		</Point>
	</Placemark>
	<Placemark id="0B1ED12E9840D543B3AF">
		<name>p6</name>
		<LookAt>
			<longitude>50.23189643614657</longitude>
			<latitude>25.23055865504578</latitude>
			<altitude>108.7495156377121</altitude>
			<heading>267.1869207578161</heading>
			<tilt>0</tilt>
			<gx:fovy>35</gx:fovy>
			<range>717.6073091120634</range>
			<altitudeMode>absolute</altitudeMode>
		</LookAt>
		<styleUrl>#__managed_style_073447481D40D5394D0D</styleUrl>
		<Point>
			<coordinates>50.23189643614657,25.23055865504578,108.7495156377121</coordinates>
		</Point>
	</Placemark>
	<Placemark id="0EA4D82F7040D544DFE2">
		<name>p7</name>
		<LookAt>
			<longitude>50.23433086748543</longitude>
			<latitude>25.23087429101648</latitude>
			<altitude>107.2038848507119</altitude>
			<heading>269.6840303441362</heading>
			<tilt>0</tilt>
			<gx:fovy>35</gx:fovy>
			<range>397.4570760739153</range>
			<altitudeMode>absolute</altitudeMode>
		</LookAt>
		<styleUrl>#__managed_style_073447481D40D5394D0D</styleUrl>
		<Point>
			<coordinates>50.23433086748543,25.23087429101648,107.2038848507119</coordinates>
		</Point>
	</Placemark>
	<Placemark id="02B314F80440D54513B6">
		<name>p8</name>
		<LookAt>
			<longitude>50.23315572649211</longitude>
			<latitude>25.23086818776743</latitude>
			<altitude>110.7215038297221</altitude>
			<heading>269.6835433388306</heading>
			<tilt>0</tilt>
			<gx:fovy>35</gx:fovy>
			<range>1034.622540060809</range>
			<altitudeMode>absolute</altitudeMode>
		</LookAt>
		<styleUrl>#__managed_style_073447481D40D5394D0D</styleUrl>
		<Point>
			<coordinates>50.23315572649211,25.23086818776743,110.7215038297221</coordinates>
		</Point>
	</Placemark>
	<Placemark id="08C76CFB2E40D545BAEB">
		<name>p9</name>
		<LookAt>
			<longitude>50.23188878822987</longitude>
			<latitude>25.23089067442123</latitude>
			<altitude>108.6460924856629</altitude>
			<heading>269.6829936319782</heading>
			<tilt>0</tilt>
			<gx:fovy>35</gx:fovy>
			<range>1036.697862307483</range>
			<altitudeMode>absolute</altitudeMode>
		</LookAt>
		<styleUrl>#__managed_style_073447481D40D5394D0D</styleUrl>
		<Point>
			<coordinates>50.23188086005118,25.23084973496745,108.6460924856629</coordinates>
		</Point>
	</Placemark>
	<Placemark id="0B1A0E65A440D54858E5">
		<name>p11</name>
		<LookAt>
			<longitude>50.23313043643742</longitude>
			<latitude>25.23116502913202</latitude>
			<altitude>111.0278665023151</altitude>
			<heading>353.3203125</heading>
			<tilt>0</tilt>
			<gx:fovy>35</gx:fovy>
			<range>500</range>
			<altitudeMode>absolute</altitudeMode>
		</LookAt>
		<styleUrl>#__managed_style_073447481D40D5394D0D</styleUrl>
		<Point>
			<coordinates>50.23313043643742,25.23116502913202,111.0278665023151</coordinates>
		</Point>
	</Placemark>
	<Placemark id="0578D6DE0140D548BE45">
		<name>p14</name>
		<LookAt>
			<longitude>50.23310362022058</longitude>
			<latitude>25.2314689862485</latitude>
			<altitude>111.027981794745</altitude>
			<heading>359.6484374667736</heading>
			<tilt>0</tilt>
			<gx:fovy>35</gx:fovy>
			<range>500</range>
			<altitudeMode>absolute</altitudeMode>
		</LookAt>
		<styleUrl>#__managed_style_073447481D40D5394D0D</styleUrl>
		<Point>
			<coordinates>50.23310362022058,25.2314689862485,111.027981794745</coordinates>
		</Point>
	</Placemark>
	<Placemark id="011A2D800940D54952C4">
		<name>p17</name>
		<LookAt>
			<longitude>50.23310914499349</longitude>
			<latitude>25.23171122056134</latitude>
			<altitude>111.0278457395206</altitude>
			<heading>357.5392919337405</heading>
			<tilt>0</tilt>
			<gx:fovy>35</gx:fovy>
			<range>500.0000137789903</range>
			<altitudeMode>absolute</altitudeMode>
		</LookAt>
		<styleUrl>#__managed_style_073447481D40D5394D0D</styleUrl>
		<Point>
			<coordinates>50.23310914499349,25.23171122056134,111.0278457395206</coordinates>
		</Point>
	</Placemark>
	<Placemark id="07B65B6FBE40D54A11F6">
		<name>p20</name>
		<LookAt>
			<longitude>50.23310674627559</longitude>
			<latitude>25.23204521168373</latitude>
			<altitude>111.0279217627255</altitude>
			<heading>358.7097244171939</heading>
			<tilt>0</tilt>
			<gx:fovy>35</gx:fovy>
			<range>500.0000137789903</range>
			<altitudeMode>absolute</altitudeMode>
		</LookAt>
		<styleUrl>#__managed_style_073447481D40D5394D0D</styleUrl>
		<Point>
			<coordinates>50.23310674627559,25.23204521168373,111.0279217627255</coordinates>
		</Point>
	</Placemark>
	<Placemark id="0014BE577C40D54B75D6">
		<name>p12</name>
		<LookAt>
			<longitude>50.23190335676465</longitude>
			<latitude>25.23114648408917</latitude>
			<altitude>108.9995069227736</altitude>
			<heading>178.0540497500086</heading>
			<tilt>0</tilt>
			<gx:fovy>35</gx:fovy>
			<range>972.754852220969</range>
			<altitudeMode>absolute</altitudeMode>
		</LookAt>
		<styleUrl>#__managed_style_073447481D40D5394D0D</styleUrl>
		<Point>
			<coordinates>50.23186684058027,25.23114423389364,108.9995069227736</coordinates>
		</Point>
	</Placemark>
	<Placemark id="05B9CDFA6D40D54BA52B">
		<name>p10</name>
		<LookAt>
			<longitude>50.23433937833439</longitude>
			<latitude>25.23122355592829</latitude>
			<altitude>107.8029343767531</altitude>
			<heading>178.0550881796393</heading>
			<tilt>0</tilt>
			<gx:fovy>35</gx:fovy>
			<range>973.9512798999206</range>
			<altitudeMode>absolute</altitudeMode>
		</LookAt>
		<styleUrl>#__managed_style_073447481D40D5394D0D</styleUrl>
		<Point>
			<coordinates>50.23433937833439,25.23122355592829,107.8029343767531</coordinates>
		</Point>
	</Placemark>
	<Placemark id="08014A8E0140D54C1D89">
		<name>p15</name>
		<LookAt>
			<longitude>50.23185472478657</longitude>
			<latitude>25.23141080093</latitude>
			<altitude>109.1779634884653</altitude>
			<heading>175.6512388821486</heading>
			<tilt>0</tilt>
			<gx:fovy>35</gx:fovy>
			<range>1219.907328785921</range>
			<altitudeMode>absolute</altitudeMode>
		</LookAt>
		<styleUrl>#__managed_style_073447481D40D5394D0D</styleUrl>
		<Point>
			<coordinates>50.23185472478657,25.23141080093,109.1779634884653</coordinates>
		</Point>
	</Placemark>
	<Placemark id="01D7C99F7B40D54CA188">
		<name>p13</name>
		<LookAt>
			<longitude>50.23432589512537</longitude>
			<latitude>25.23155201140911</latitude>
			<altitude>108.2594046906519</altitude>
			<heading>175.6522126359942</heading>
			<tilt>0</tilt>
			<gx:fovy>35</gx:fovy>
			<range>898.6478158424143</range>
			<altitudeMode>absolute</altitudeMode>
		</LookAt>
		<styleUrl>#__managed_style_073447481D40D5394D0D</styleUrl>
		<Point>
			<coordinates>50.23432589512537,25.23155201140911,108.2594046906519</coordinates>
		</Point>
	</Placemark>
	<Placemark id="09E1949FEB40D54CEC96">
		<name>p16</name>
		<LookAt>
			<longitude>50.23430334591412</longitude>
			<latitude>25.23181607062577</latitude>
			<altitude>108.9191865931845</altitude>
			<heading>175.6522030269178</heading>
			<tilt>0</tilt>
			<gx:fovy>35</gx:fovy>
			<range>897.9879959438404</range>
			<altitudeMode>absolute</altitudeMode>
		</LookAt>
		<styleUrl>#__managed_style_073447481D40D5394D0D</styleUrl>
		<Point>
			<coordinates>50.23430334591412,25.23181607062577,108.9191865931845</coordinates>
		</Point>
	</Placemark>
	<Placemark id="0B7726E2ED40D54D1EA8">
		<name>p18</name>
		<LookAt>
			<longitude>50.23186233362333</longitude>
			<latitude>25.23167222339911</latitude>
			<altitude>110.0001635686206</altitude>
			<heading>175.6511624488988</heading>
			<tilt>0</tilt>
			<gx:fovy>35</gx:fovy>
			<range>896.9070854200982</range>
			<altitudeMode>absolute</altitudeMode>
		</LookAt>
		<styleUrl>#__managed_style_073447481D40D5394D0D</styleUrl>
		<Point>
			<coordinates>50.23184286667967,25.23166529963618,110.0001635686206</coordinates>
		</Point>
	</Placemark>
	<Placemark id="09C47D84FD40D54E61C2">
		<name>p19</name>
		<LookAt>
			<longitude>50.23429447963006</longitude>
			<latitude>25.23210343140422</latitude>
			<altitude>109.6528232328018</altitude>
			<heading>175.6521748117475</heading>
			<tilt>0</tilt>
			<gx:fovy>35</gx:fovy>
			<range>871.126919783419</range>
			<altitudeMode>absolute</altitudeMode>
		</LookAt>
		<styleUrl>#__managed_style_073447481D40D5394D0D</styleUrl>
		<Point>
			<coordinates>50.23429447963006,25.23210343140422,109.6528232328018</coordinates>
		</Point>
	</Placemark>
	<Placemark id="0942965E5940D54EBAD8">
		<name>p21</name>
		<LookAt>
			<longitude>50.23183384072205</longitude>
			<latitude>25.23195744351063</latitude>
			<altitude>110.6032412239267</altitude>
			<heading>175.6511258714512</heading>
			<tilt>0</tilt>
			<gx:fovy>35</gx:fovy>
			<range>870.176545499271</range>
			<altitudeMode>absolute</altitudeMode>
		</LookAt>
		<styleUrl>#__managed_style_073447481D40D5394D0D</styleUrl>
		<Point>
			<coordinates>50.23183384072205,25.23195744351063,110.6032412239267</coordinates>
		</Point>
	</Placemark>
	<Placemark id="0A3022A83E40D54F6EFF">
		<name>821-780E…</name>
		<LookAt>
			<longitude>50.23250842143304</longitude>
			<latitude>25.2300736198932</latitude>
			<altitude>109.1616961409677</altitude>
			<heading>0.000107609354001526</heading>
			<tilt>0</tilt>
			<gx:fovy>30.00000944559907</gx:fovy>
			<range>1053.596001027909</range>
			<altitudeMode>absolute</altitudeMode>
		</LookAt>
		<styleUrl>#__managed_style_0593DA188740D54F6F23</styleUrl>
		<Polygon>
			<outerBoundaryIs>
				<LinearRing>
					<coordinates>
						50.23429279642966,25.23057359232087,0 50.233169429651,25.23055152174089,0 50.23316605209932,25.23028246953293,0 50.23432078296029,25.23030807518862,0 50.23429279642966,25.23057359232087,0 
					</coordinates>
				</LinearRing>
			</outerBoundaryIs>
		</Polygon>
	</Placemark>
	<Placemark id="0FE1AD467B40D55097BC">
		<name>821-780W…</name>
		<LookAt>
			<longitude>50.23305657269384</longitude>
			<latitude>25.23001498279246</latitude>
			<altitude>108.9752704378679</altitude>
			<heading>0.000101178482917657</heading>
			<tilt>0</tilt>
			<gx:fovy>30.00000944559907</gx:fovy>
			<range>1053.782348926761</range>
			<altitudeMode>absolute</altitudeMode>
		</LookAt>
		<styleUrl>#__managed_style_0593DA188740D54F6F23</styleUrl>
		<Polygon>
			<outerBoundaryIs>
				<LinearRing>
					<coordinates>
						50.23188891779691,25.23029678002987,0 50.23316992827331,25.2302843724294,0 50.2331792328847,25.23055730406058,0 50.23190144501847,25.23057615720028,0 50.23188891779691,25.23029678002987,0 
					</coordinates>
				</LinearRing>
			</outerBoundaryIs>
		</Polygon>
	</Placemark>
	<Placemark id="07E6D7859A40D5513E70">
		<name>821-821…</name>
		<LookAt>
			<longitude>50.23401577573711</longitude>
			<latitude>25.23057740110797</latitude>
			<altitude>108.0892954417395</altitude>
			<heading>9.781955769011358e-05</heading>
			<tilt>0</tilt>
			<gx:fovy>30.00000944559907</gx:fovy>
			<range>1054.668382195086</range>
			<altitudeMode>absolute</altitudeMode>
		</LookAt>
		<styleUrl>#__managed_style_0593DA188740D54F6F23</styleUrl>
		<Polygon>
			<outerBoundaryIs>
				<LinearRing>
					<coordinates>
						50.2343234820018,25.23059172615096,0 50.2343125781723,25.23088137185153,0 50.23316144440319,25.23088397310913,0 50.2331696649057,25.2305841172964,0 50.2343234820018,25.23059172615096,0 
					</coordinates>
				</LinearRing>
			</outerBoundaryIs>
		</Polygon>
	</Placemark>
	<Placemark id="028776C27B40D551AE6F">
		<name>821-7301…</name>
		<LookAt>
			<longitude>50.23305345383746</longitude>
			<latitude>25.23084682531559</latitude>
			<altitude>110.8969864607207</altitude>
			<heading>9.461492138482237e-05</heading>
			<tilt>0</tilt>
			<gx:fovy>30.00000944559907</gx:fovy>
			<range>1051.860647808644</range>
			<altitudeMode>absolute</altitudeMode>
		</LookAt>
		<styleUrl>#__managed_style_0593DA188740D54F6F23</styleUrl>
		<Polygon>
			<outerBoundaryIs>
				<LinearRing>
					<coordinates>
						50.23187769099918,25.23089691371197,0 50.23191839921088,25.23058585219431,0 50.2331779795153,25.23056026875143,0 50.23316123158635,25.23088967197072,0 50.23187769099918,25.23089691371197,0 
					</coordinates>
				</LinearRing>
			</outerBoundaryIs>
		</Polygon>
	</Placemark>
	<Placemark id="0BA71DF55840D5523D9B">
		<name>821-7502…</name>
		<LookAt>
			<longitude>50.2339557182326</longitude>
			<latitude>25.23077273445154</latitude>
			<altitude>108.3373864960959</altitude>
			<heading>9.110243663220574e-05</heading>
			<tilt>0</tilt>
			<gx:fovy>30.00000944559907</gx:fovy>
			<range>1054.420196461142</range>
			<altitudeMode>absolute</altitudeMode>
		</LookAt>
		<styleUrl>#__managed_style_0593DA188740D54F6F23</styleUrl>
		<Polygon>
			<outerBoundaryIs>
				<LinearRing>
					<coordinates>
						50.23431502746551,25.23088726961591,0 50.23433834854617,25.23123291402481,0 50.23311645495772,25.23119665889953,0 50.2331598999976,25.23090742036917,0 50.23431502746551,25.23088726961591,0 
					</coordinates>
				</LinearRing>
			</outerBoundaryIs>
		</Polygon>
	</Placemark>
	<Placemark id="09B74A965C40D552EFE3">
		<name>821-7701</name>
		<LookAt>
			<longitude>50.23235829673091</longitude>
			<latitude>25.23099259828238</latitude>
			<altitude>109.9951686827867</altitude>
			<heading>359.2039182252763</heading>
			<tilt>0</tilt>
			<gx:fovy>35</gx:fovy>
			<range>772.0648866605916</range>
			<altitudeMode>absolute</altitudeMode>
		</LookAt>
		<styleUrl>#__managed_style_0593DA188740D54F6F23</styleUrl>
		<Polygon>
			<outerBoundaryIs>
				<LinearRing>
					<coordinates>
						50.23313827933827,25.2311915359132,0 50.23183773999155,25.23116547481463,0 50.23186426038733,25.23088414256639,0 50.23316323648488,25.23087873180736,0 50.23313827933827,25.2311915359132,0 
					</coordinates>
				</LinearRing>
			</outerBoundaryIs>
		</Polygon>
	</Placemark>
	<Placemark id="074AE02DAF40D5539E8A">
		<name>821-821W/E</name>
		<LookAt>
			<longitude>50.23388296017104</longitude>
			<latitude>25.23129994827901</latitude>
			<altitude>109.7505519087007</altitude>
			<heading>359.2039112997798</heading>
			<tilt>0</tilt>
			<gx:fovy>35</gx:fovy>
			<range>772.3095493994333</range>
			<altitudeMode>absolute</altitudeMode>
		</LookAt>
		<styleUrl>#__managed_style_0593DA188740D54F6F23</styleUrl>
		<Polygon>
			<outerBoundaryIs>
				<LinearRing>
					<coordinates>
						50.2331033767133,25.23150005779305,0 50.23314003531991,25.23119861067109,0 50.23432488011888,25.23125157071369,0 50.23431842740594,25.23157894706896,0 50.2331033767133,25.23150005779305,0 
					</coordinates>
				</LinearRing>
			</outerBoundaryIs>
		</Polygon>
	</Placemark>
	<Placemark id="0F7A53C10E40D5544868">
		<name>821-7601…</name>
		<LookAt>
			<longitude>50.23309269247279</longitude>
			<latitude>25.23119915443066</latitude>
			<altitude>111.0157746989335</altitude>
			<heading>359.2039020863774</heading>
			<tilt>0</tilt>
			<gx:fovy>35</gx:fovy>
			<range>771.0443306055822</range>
			<altitudeMode>absolute</altitudeMode>
		</LookAt>
		<styleUrl>#__managed_style_0593DA188740D54F6F23</styleUrl>
		<Polygon>
			<outerBoundaryIs>
				<LinearRing>
					<coordinates>
						50.23313357364943,25.23119897610462,0 50.23308794337825,25.2315022664463,0 50.23184018310003,25.23144199086058,0 50.23183964556929,25.23118651845639,0 50.23313357364943,25.23119897610462,0 
					</coordinates>
				</LinearRing>
			</outerBoundaryIs>
		</Polygon>
	</Placemark>
	<Placemark id="035C2AE72440D554C12B">
		<name>small bore</name>
		<LookAt>
			<longitude>50.23412319142222</longitude>
			<latitude>25.23166436876465</latitude>
			<altitude>109.2699883303147</altitude>
			<heading>359.203894579529</heading>
			<tilt>0</tilt>
			<gx:fovy>35</gx:fovy>
			<range>771.0297750731843</range>
			<altitudeMode>absolute</altitudeMode>
		</LookAt>
		<styleUrl>#__managed_style_0593DA188740D54F6F23</styleUrl>
		<Polygon>
			<outerBoundaryIs>
				<LinearRing>
					<coordinates>
						50.23431726528676,25.23158701027874,0 50.2342962532416,25.2318358620456,0 50.23310459801302,25.23177703472239,0 50.23310089021209,25.23151655315855,0 50.23431726528676,25.23158701027874,0 
					</coordinates>
				</LinearRing>
			</outerBoundaryIs>
		</Polygon>
	</Placemark>
	<Placemark id="0D701A7EE840D555372B">
		<name>fittings</name>
		<LookAt>
			<longitude>50.23303367844996</longitude>
			<latitude>25.23177448377216</latitude>
			<altitude>111.0157428778325</altitude>
			<heading>359.2038866892883</heading>
			<tilt>0</tilt>
			<gx:fovy>35</gx:fovy>
			<range>769.2839919342077</range>
			<altitudeMode>absolute</altitudeMode>
		</LookAt>
		<styleUrl>#__managed_style_0593DA188740D54F6F23</styleUrl>
		<Polygon>
			<outerBoundaryIs>
				<LinearRing>
					<coordinates>
						50.23182826775058,25.23170757502516,0 50.23183676248238,25.2314344390177,0 50.2330983804019,25.23153011770656,0 50.23309459863649,25.231776312127,0 50.23182826775058,25.23170757502516,0 
					</coordinates>
				</LinearRing>
			</outerBoundaryIs>
		</Polygon>
	</Placemark>
	<Placemark id="08255699FA40D555D582">
		<name>laydown gcp 5</name>
		<LookAt>
			<longitude>50.23426676860392</longitude>
			<latitude>25.23029038041467</latitude>
			<altitude>107.4785258805011</altitude>
			<heading>359.0685153442445</heading>
			<tilt>0</tilt>
			<gx:fovy>35</gx:fovy>
			<range>1187.643368793942</range>
			<altitudeMode>absolute</altitudeMode>
		</LookAt>
		<styleUrl>#__managed_style_0C835AB42440D555EB65</styleUrl>
		<Polygon>
			<outerBoundaryIs>
				<LinearRing>
					<coordinates>
						50.2343309119461,25.23026835639,0 50.23428618379306,25.23284329303681,0 50.23172540522152,25.23281816030096,0 50.2318469699707,25.2302962442764,0 50.2343309119461,25.23026835639,0 
					</coordinates>
				</LinearRing>
			</outerBoundaryIs>
		</Polygon>
	</Placemark>
</Document>
</kml>
