<?xml version="1.0" encoding="UTF-8"?>
<kml xmlns="http://www.opengis.net/kml/2.2" xmlns:gx="http://www.google.com/kml/ext/2.2" xmlns:kml="http://www.opengis.net/kml/2.2" xmlns:atom="http://www.w3.org/2005/Atom">
<Document id="document">
	<name>SITE GCP 5</name>
	<visibility>0</visibility>
	<gx:CascadingStyle kml:id="__managed_style_01C52326FF40D7F7C8E8_highlight">
		<styleUrl>https://earth.google.com/balloon_components/base/1.1.0.0/card_template.kml#main</styleUrl>
		<Style>
			<IconStyle>
				<scale>1.2</scale>
				<Icon>
					<href>https://earth.google.com/earth/document/icon?color=1976d2&amp;id=2000&amp;scale=4</href>
				</Icon>
				<hotSpot x="64" y="128" xunits="pixels" yunits="insetPixels"/>
			</IconStyle>
			<LabelStyle>
			</LabelStyle>
			<LineStyle>
				<color>ff2dc0fb</color>
				<width>2.667</width>
			</LineStyle>
			<PolyStyle>
				<color>40ffffff</color>
			</PolyStyle>
			<BalloonStyle>
			</BalloonStyle>
		</Style>
	</gx:CascadingStyle>
	<gx:CascadingStyle kml:id="__managed_style_01C52326FF40D7F7C8E8_normal">
		<styleUrl>https://earth.google.com/balloon_components/base/1.1.0.0/card_template.kml#main</styleUrl>
		<Style>
			<IconStyle>
				<Icon>
					<href>https://earth.google.com/earth/document/icon?color=1976d2&amp;id=2000&amp;scale=4</href>
				</Icon>
				<hotSpot x="64" y="128" xunits="pixels" yunits="insetPixels"/>
			</IconStyle>
			<LabelStyle>
			</LabelStyle>
			<LineStyle>
				<color>ff2dc0fb</color>
				<width>1.778</width>
			</LineStyle>
			<PolyStyle>
				<color>40ffffff</color>
			</PolyStyle>
			<BalloonStyle>
			</BalloonStyle>
		</Style>
	</gx:CascadingStyle>
	<StyleMap id="__managed_style_01C52326FF40D7F7C8E8">
		<Pair>
			<key>normal</key>
			<styleUrl>#__managed_style_01C52326FF40D7F7C8E8_normal</styleUrl>
		</Pair>
		<Pair>
			<key>highlight</key>
			<styleUrl>#__managed_style_01C52326FF40D7F7C8E8_highlight</styleUrl>
		</Pair>
	</StyleMap>
	<Placemark id="5DB5A72E2C000001">
		<name>Punto 1</name>
		<LookAt>
			<longitude>50.2906184769158</longitude>
			<latitude>25.19790205544643</latitude>
			<altitude>117.9675460460574</altitude>
			<heading>354.1530908251186</heading>
			<tilt>0</tilt>
			<gx:fovy>35</gx:fovy>
			<range>12868.76981049311</range>
			<altitudeMode>absolute</altitudeMode>
		</LookAt>
		<styleUrl>#__managed_style_01C52326FF40D7F7C8E8</styleUrl>
		<Point>
			<coordinates>50.2388,25.2251,111.1816928906957</coordinates>
		</Point>
	</Placemark>
	<Placemark id="5DB5A72E2C000002">
		<name>punto 2</name>
		<LookAt>
			<longitude>50.2204031154053</longitude>
			<latitude>25.22814969421758</latitude>
			<altitude>124.598964084174</altitude>
			<heading>354.1265495265768</heading>
			<tilt>0</tilt>
			<gx:fovy>35</gx:fovy>
			<range>26079.18559406418</range>
			<altitudeMode>absolute</altitudeMode>
		</LookAt>
		<styleUrl>#__managed_style_01C52326FF40D7F7C8E8</styleUrl>
		<Point>
			<coordinates>50.2388,25.2296,124.4167545340871</coordinates>
		</Point>
	</Placemark>
	<Placemark id="5DB5A72E2C000003">
		<name>punto 3</name>
		<LookAt>
			<longitude>50.2204031154053</longitude>
			<latitude>25.22814969421758</latitude>
			<altitude>124.598964084174</altitude>
			<heading>354.1265495265768</heading>
			<tilt>0</tilt>
			<gx:fovy>35</gx:fovy>
			<range>26079.18559406418</range>
			<altitudeMode>absolute</altitudeMode>
		</LookAt>
		<styleUrl>#__managed_style_01C52326FF40D7F7C8E8</styleUrl>
		<Point>
			<coordinates>50.244,25.2251,114.7829831491035</coordinates>
		</Point>
	</Placemark>
	<Placemark id="5DB5A72E2C000004">
		<name>punto 4</name>
		<LookAt>
			<longitude>50.2204031154053</longitude>
			<latitude>25.22814969421758</latitude>
			<altitude>124.598964084174</altitude>
			<heading>354.1265495265768</heading>
			<tilt>0</tilt>
			<gx:fovy>35</gx:fovy>
			<range>26079.18559406418</range>
			<altitudeMode>absolute</altitudeMode>
		</LookAt>
		<styleUrl>#__managed_style_01C52326FF40D7F7C8E8</styleUrl>
		<Point>
			<coordinates>50.244,25.2296,104.3864260481042</coordinates>
		</Point>
	</Placemark>
	<Placemark id="03AD4C67D640D814BBD9">
		<name>Site GCP 5</name>
		<LookAt>
			<longitude>50.24010904921172</longitude>
			<latitude>25.22728214624746</latitude>
			<altitude>110.2485735271654</altitude>
			<heading>0</heading>
			<tilt>0</tilt>
			<gx:fovy>35</gx:fovy>
			<range>2223.687437378685</range>
			<altitudeMode>absolute</altitudeMode>
		</LookAt>
		<styleUrl>#__managed_style_01C52326FF40D7F7C8E8</styleUrl>
		<Polygon>
			<outerBoundaryIs>
				<LinearRing>
					<coordinates>
						50.23877527243364,25.22970185539217,0 50.23879091832816,25.22510263417829,0 50.24402822882033,25.22514556460915,0 50.24398714063309,25.22969808308039,0 50.23877527243364,25.22970185539217,0 
					</coordinates>
				</LinearRing>
			</outerBoundaryIs>
		</Polygon>
	</Placemark>
</Document>
</kml>
